[{"OBJECT_NAME":"ONEWEB-0429","OBJECT_ID":"2021-132AH","EPOCH":"2026-06-09T05:17:25.997856","MEAN_MOTION":13.18685188,"ECCENTRICITY":0.0001729,"INCLINATION":87.9161,"RA_OF_ASC_NODE":337.0451,"ARG_OF_PERICENTER":91.1991,"MEAN_ANOMALY":268.9339,"EPHEMERIS_TYPE":0,"CLASSIFICATION_TYPE":"U","NORAD_CAT_ID":50500,"ELEMENT_SET_NO":999,"REV_AT_EPOCH":22053,"BSTAR":1.5147e-05,"MEAN_MOTION_DOT":1.9e-07,"MEAN_MOTION_DDOT":0.0},{"OBJECT_NAME":"ONEWEB-0430","OBJECT_ID":"2021-132AJ","EPOCH":"2026-06-09T05:00:26.100288","MEAN_MOTION":13.18685666,"ECCENTRICITY":0.0001703,"INCLINATION":87.916,"RA_OF_ASC_NODE":337.0457,"ARG_OF_PERICENTER":98.3008,"MEAN_ANOMALY":261.8317,"EPHEMERIS_TYPE":0,"CLASSIFICATION_TYPE":"U","NORAD_CAT_ID":50501,"ELEMENT_SET_NO":999,"REV_AT_EPOCH":22057,"BSTAR":0.00020837,"MEAN_MOTION_DOT":9.5e-07,"MEAN_MOTION_DDOT":0.0},{"OBJECT_NAME":"ONEWEB-0432","OBJECT_ID":"2021-132AK","EPOCH":"2026-06-09T08:00:03.000384","MEAN_MOTION":13.1750075,"ECCENTRICITY":0.0001955,"INCLINATION":87.9177,"RA_OF_ASC_NODE":336.9947,"ARG_OF_PERICENTER":120.4141,"MEAN_ANOMALY":308.5534,"EPHEMERIS_TYPE":0,"CLASSIFICATION_TYPE":"U","NORAD_CAT_ID":50502,"ELEMENT_SET_NO":999,"REV_AT_EPOCH":524,"BSTAR":-0.0016468,"MEAN_MOTION_DOT":-6.25e-06,"MEAN_MOTION_DDOT":0.0},{"OBJECT_NAME":"ONEWEB-0440","OBJECT_ID":"2021-132AL","EPOCH":"2026-06-09T05:29:33.989568","MEAN_MOTION":13.18684564,"ECCENTRICITY":0.0001659,"INCLINATION":87.9167,"RA_OF_ASC_NODE":337.0371,"ARG_OF_PERICENTER":81.7743,"MEAN_ANOMALY":278.3578,"EPHEMERIS_TYPE":0,"CLASSIFICATION_TYPE":"U","NORAD_CAT_ID":50503,"ELEMENT_SET_NO":999,"REV_AT_EPOCH":22052,"BSTAR":0.00014476,"MEAN_MOTION_DOT":7e-07,"MEAN_MOTION_DDOT":0.0},{"OBJECT_NAME":"ONEWEB-0450","OBJECT_ID":"2021-132AM","EPOCH":"2026-06-09T05:20:03.982848","MEAN_MOTION":13.18685315,"ECCENTRICITY":0.0001644,"INCLINATION":87.9157,"RA_OF_ASC_NODE":337.0445,"ARG_OF_PERICENTER":93.1785,"MEAN_ANOMALY":266.9535,"EPHEMERIS_TYPE":0,"CLASSIFICATION_TYPE":"U","NORAD_CAT_ID":50504,"ELEMENT_SET_NO":999,"REV_AT_EPOCH":22055,"BSTAR":0.00016039,"MEAN_MOTION_DOT":7.6e-07,"MEAN_MOTION_DDOT":0.0},{"OBJECT_NAME":"ONEWEB-0410","OBJECT_ID":"2022-012A","EPOCH":"2026-06-09T02:12:37.935072","MEAN_MOTION":13.17647702,"ECCENTRICITY":0.000317,"INCLINATION":87.9149,"RA_OF_ASC_NODE":7.467,"ARG_OF_PERICENTER":81.6763,"MEAN_ANOMALY":278.4728,"EPHEMERIS_TYPE":0,"CLASSIFICATION_TYPE":"U","NORAD_CAT_ID":51622,"ELEMENT_SET_NO":999,"REV_AT_EPOCH":21263,"BSTAR":-2.3207e-05,"MEAN_MOTION_DOT":4e-08,"MEAN_MOTION_DDOT":0.0},{"OBJECT_NAME":"ONEWEB-0411","OBJECT_ID":"2022-012B","EPOCH":"2026-06-09T05:23:18.096000","MEAN_MOTION":13.10371616,"ECCENTRICITY":0.0001494,"INCLINATION":87.8847,"RA_OF_ASC_NODE":37.8522,"ARG_OF_PERICENTER":98.0728,"MEAN_ANOMALY":262.0569,"EPHEMERIS_TYPE":0,"CLASSIFICATION_TYPE":"U","NORAD_CAT_ID":51623,"ELEMENT_SET_NO":999,"REV_AT_EPOCH":20824,"BSTAR":-0.0017297000000000002,"MEAN_MOTION_DOT":-5.91e-06,"MEAN_MOTION_DDOT":0.0},{"OBJECT_NAME":"ONEWEB-0415","OBJECT_ID":"2022-012C","EPOCH":"2026-06-09T01:38:37.154976","MEAN_MOTION":13.1037116,"ECCENTRICITY":0.0001733,"INCLINATION":87.8843,"RA_OF_ASC_NODE":37.8823,"ARG_OF_PERICENTER":89.6976,"MEAN_ANOMALY":270.435,"EPHEMERIS_TYPE":0,"CLASSIFICATION_TYPE":"U","NORAD_CAT_ID":51624,"ELEMENT_SET_NO":999,"REV_AT_EPOCH":20822,"BSTAR":-0.0017879999999999999,"MEAN_MOTION_DOT":-6.11e-06,"MEAN_MOTION_DDOT":0.0},{"OBJECT_NAME":"ONEWEB-0416","OBJECT_ID":"2022-012D","EPOCH":"2026-06-09T01:55:21.816768","MEAN_MOTION":13.10374558,"ECCENTRICITY":0.0001942,"INCLINATION":87.884,"RA_OF_ASC_NODE":37.899,"ARG_OF_PERICENTER":94.8047,"MEAN_ANOMALY":265.3302,"EPHEMERIS_TYPE":0,"CLASSIFICATION_TYPE":"U","NORAD_CAT_ID":51625,"ELEMENT_SET_NO":999,"REV_AT_EPOCH":20826,"BSTAR":-0.0016603000000000002,"MEAN_MOTION_DOT":-5.67e-06,"MEAN_MOTION_DDOT":0.0},{"OBJECT_NAME":"ONEWEB-0422","OBJECT_ID":"2022-012E","EPOCH":"2026-06-09T02:27:13.233600","MEAN_MOTION":13.1764846,"ECCENTRICITY":0.0001282,"INCLINATION":87.9147,"RA_OF_ASC_NODE":7.4662,"ARG_OF_PERICENTER":74.0874,"MEAN_ANOMALY":286.0399,"EPHEMERIS_TYPE":0,"CLASSIFICATION_TYPE":"U","NORAD_CAT_ID":51626,"ELEMENT_SET_NO":999,"REV_AT_EPOCH":21274,"BSTAR":0.0001811,"MEAN_MOTION_DOT":8.3e-07,"MEAN_MOTION_DDOT":0.0},{"OBJECT_NAME":"ONEWEB-0423","OBJECT_ID":"2022-012F","EPOCH":"2026-06-09T02:17:30.639264","MEAN_MOTION":13.17649694,"ECCENTRICITY":0.0001923,"INCLINATION":87.914,"RA_OF_ASC_NODE":7.4735,"ARG_OF_PERICENTER":83.4271,"MEAN_ANOMALY":276.708,"EPHEMERIS_TYPE":0,"CLASSIFICATION_TYPE":"U","NORAD_CAT_ID":51627,"ELEMENT_SET_NO":999,"REV_AT_EPOCH":21263,"BSTAR":0.00022995,"MEAN_MOTION_DOT":1.02e-06,"MEAN_MOTION_DDOT":0.0},{"OBJECT_NAME":"ONEWEB-0425","OBJECT_ID":"2022-012G","EPOCH":"2026-06-09T02:09:43.307712","MEAN_MOTION":13.10376412,"ECCENTRICITY":0.0002128,"INCLINATION":87.8845,"RA_OF_ASC_NODE":37.8799,"ARG_OF_PERICENTER":78.4985,"MEAN_ANOMALY":281.6382,"EPHEMERIS_TYPE":0,"CLASSIFICATION_TYPE":"U","NORAD_CAT_ID":51628,"ELEMENT_SET_NO":999,"REV_AT_EPOCH":20826,"BSTAR":-0.00029032000000000005,"MEAN_MOTION_DOT":-8.9e-07,"MEAN_MOTION_DDOT":0.0},{"OBJECT_NAME":"ONEWEB-0428","OBJECT_ID":"2022-012H","EPOCH":"2026-06-09T01:41:00.267072","MEAN_MOTION":13.10371726,"ECCENTRICITY":0.0001788,"INCLINATION":87.8838,"RA_OF_ASC_NODE":37.8908,"ARG_OF_PERICENTER":79.9922,"MEAN_ANOMALY":280.1407,"EPHEMERIS_TYPE":0,"CLASSIFICATION_TYPE":"U","NORAD_CAT_ID":51629,"ELEMENT_SET_NO":999,"REV_AT_EPOCH":20822,"BSTAR":-0.0017659,"MEAN_MOTION_DOT":-6.04e-06,"MEAN_MOTION_DDOT":0.0},{"OBJECT_NAME":"ONEWEB-0431","OBJECT_ID":"2022-012J","EPOCH":"2026-06-09T04:37:43.495392","MEAN_MOTION":13.10371723,"ECCENTRICITY":0.0001392,"INCLINATION":87.884,"RA_OF_ASC_NODE":37.8587,"ARG_OF_PERICENTER":97.843,"MEAN_ANOMALY":262.2855,"EPHEMERIS_TYPE":0,"CLASSIFICATION_TYPE":"U","NORAD_CAT_ID":51630,"ELEMENT_SET_NO":999,"REV_AT_EPOCH":20829,"BSTAR":0.001688,"MEAN_MOTION_DOT":6.02e-06,"MEAN_MOTION_DDOT":0.0},{"OBJECT_NAME":"ONEWEB-0434","OBJECT_ID":"2022-012K","EPOCH":"2026-06-09T04:04:39.003168","MEAN_MOTION":13.10375387,"ECCENTRICITY":0.0002411,"INCLINATION":87.8847,"RA_OF_ASC_NODE":37.8884,"ARG_OF_PERICENTER":74.9876,"MEAN_ANOMALY":285.1518,"EPHEMERIS_TYPE":0,"CLASSIFICATION_TYPE":"U","NORAD_CAT_ID":51631,"ELEMENT_SET_NO":999,"REV_AT_EPOCH":20827,"BSTAR":0.00029577,"MEAN_MOTION_DOT":1.16e-06,"MEAN_MOTION_DDOT":0.0},{"OBJECT_NAME":"ONEWEB-0435","OBJECT_ID":"2022-012L","EPOCH":"2026-06-09T04:16:23.009376","MEAN_MOTION":13.1037359,"ECCENTRICITY":0.000148,"INCLINATION":87.884,"RA_OF_ASC_NODE":37.8736,"ARG_OF_PERICENTER":77.8268,"MEAN_ANOMALY":282.3025,"EPHEMERIS_TYPE":0,"CLASSIFICATION_TYPE":"U","NORAD_CAT_ID":51632,"ELEMENT_SET_NO":999,"REV_AT_EPOCH":20826,"BSTAR":0.0015326,"MEAN_MOTION_DOT":5.48e-06,"MEAN_MOTION_DDOT":0.0}]