ONEWEB-0429             
1 50500U 21132AH  26160.22043979  .00000019  00000+0  15147-4 0  9991
2 50500  87.9161 337.0451 0001729  91.1991 268.9339 13.18685188220537
ONEWEB-0430             
1 50501U 21132AJ  26160.20863542  .00000095  00000+0  20837-3 0  9991
2 50501  87.9160 337.0457 0001703  98.3008 261.8317 13.18685666220576
ONEWEB-0432             
1 50502U 21132AK  26160.33336806 -.00000625  00000+0 -16468-2 0  9999
2 50502  87.9177 336.9947 0001955 120.4141 308.5534 13.17500750  5245
ONEWEB-0440             
1 50503U 21132AL  26160.22886562  .00000070  00000+0  14476-3 0  9997
2 50503  87.9167 337.0371 0001659  81.7743 278.3578 13.18684564220525
ONEWEB-0450             
1 50504U 21132AM  26160.22226832  .00000076  00000+0  16039-3 0  9999
2 50504  87.9157 337.0445 0001644  93.1785 266.9535 13.18685315220558
ONEWEB-0410             
1 51622U 22012A   26160.09210573  .00000004  00000+0 -23207-4 0  9997
2 51622  87.9149   7.4670 0003170  81.6763 278.4728 13.17647702212632
ONEWEB-0411             
1 51623U 22012B   26160.22451500 -.00000591  00000+0 -17297-2 0  9992
2 51623  87.8847  37.8522 0001494  98.0728 262.0569 13.10371616208245
ONEWEB-0415             
1 51624U 22012C   26160.06848559 -.00000611  00000+0 -17880-2 0  9990
2 51624  87.8843  37.8823 0001733  89.6976 270.4350 13.10371160208226
ONEWEB-0416             
1 51625U 22012D   26160.08011362 -.00000567  00000+0 -16603-2 0  9999
2 51625  87.8840  37.8990 0001942  94.8047 265.3302 13.10374558208266
ONEWEB-0422             
1 51626U 22012E   26160.10223650  .00000083  00000+0  18110-3 0  9995
2 51626  87.9147   7.4662 0001282  74.0874 286.0399 13.17648460212749
ONEWEB-0423             
1 51627U 22012F   26160.09549351  .00000102  00000+0  22995-3 0  9991
2 51627  87.9140   7.4735 0001923  83.4271 276.7080 13.17649694212632
ONEWEB-0425             
1 51628U 22012G   26160.09008458 -.00000089  00000+0 -29032-3 0  9995
2 51628  87.8845  37.8799 0002128  78.4985 281.6382 13.10376412208267
ONEWEB-0428             
1 51629U 22012H   26160.07014198 -.00000604  00000+0 -17659-2 0  9996
2 51629  87.8838  37.8908 0001788  79.9922 280.1407 13.10371726208221
ONEWEB-0431             
1 51630U 22012J   26160.19286453  .00000602  00000+0  16880-2 0  9997
2 51630  87.8840  37.8587 0001392  97.8430 262.2855 13.10371723208295
ONEWEB-0434             
1 51631U 22012K   26160.16989587  .00000116  00000+0  29577-3 0  9991
2 51631  87.8847  37.8884 0002411  74.9876 285.1518 13.10375387208274
ONEWEB-0435             
1 51632U 22012L   26160.17804409  .00000548  00000+0  15326-2 0  9997
2 51632  87.8840  37.8736 0001480  77.8268 282.3025 13.10373590208261
